GLOBALSTAR M001 [-]     
1 25162U 98008A   24080.52805461 -.00000079  00000+0  13579-3 0  9990
2 25162  52.0021 213.6001 0001754  46.6183  31.4172 12.38179373187622
GLOBALSTAR M004 [-]     
1 25163U 98008B   24080.21741843 -.00000083  00000+0  11338-3 0  9996
2 25163  52.0028 359.0619 0003278  12.1718 152.7832 12.63352675204407
GLOBALSTAR M002 [-]     
1 25164U 98008C   24080.03876695 -.00000081  00000+0 -90118-4 0  9994
2 25164  52.0015 298.8995 0001982  51.5040 308.5958 11.61498652131363
GLOBALSTAR M003 [-]     
1 25165U 98008D   24079.16748295  .00000045  00000+0  14310-2 0  9997
2 25165  51.9864 348.7769 0008435  96.6753  51.8660 12.11986457178044
GLOBALSTAR M014 [-]     
1 25306U 98023A   24079.75421008 -.00000068  00000+0  18291-3 0  9995
2 25306  51.9818 232.3864 0000648 173.8198 291.8704 11.65465800138170
GLOBALSTAR M006 [-]     
1 25307U 98023B   24079.45758606 -.00000036  00000+0  80781-3 0  9998
2 25307  51.9916 268.6172 0004037  24.1121 344.5369 11.58157838164144
GLOBALSTAR M015 [-]     
1 25308U 98023C   24080.06380387 -.00000104  00000+0 -69688-3 0  9995
2 25308  51.9860 344.7646 0012627 351.0128 114.1519 11.48852185142250
GLOBALSTAR M008 [-]     
1 25309U 98023D   24080.36159852 -.00000054  00000+0  33349-3 0  9998
2 25309  51.9963  73.7734 0002350 303.3018 203.5320 12.36038528182030
